[{"OBJECT_NAME":"BUFENG 1A","OBJECT_ID":"2019-032A","EPOCH":"2026-03-09T22:03:27.507168","MEAN_MOTION":15.26012088,"ECCENTRICITY":0.00054719,"INCLINATION":44.9758,"RA_OF_ASC_NODE":238.6688,"ARG_OF_PERICENTER":55.4463,"MEAN_ANOMALY":304.6935,"EPHEMERIS_TYPE":0,"CLASSIFICATION_TYPE":"U","NORAD_CAT_ID":44310,"ELEMENT_SET_NO":999,"REV_AT_EPOCH":37201,"BSTAR":0.00062413703,"MEAN_MOTION_DOT":0.00016103,"MEAN_MOTION_DDOT":0},{"OBJECT_NAME":"STARLINK-35438","OBJECT_ID":"2025-253AE","EPOCH":"2026-03-09T11:09:43.648992","MEAN_MOTION":15.27582677,"ECCENTRICITY":0.00016957,"INCLINATION":43.0014,"RA_OF_ASC_NODE":213.4659,"ARG_OF_PERICENTER":255.7018,"MEAN_ANOMALY":104.3646,"EPHEMERIS_TYPE":0,"CLASSIFICATION_TYPE":"U","NORAD_CAT_ID":66347,"ELEMENT_SET_NO":999,"REV_AT_EPOCH":2021,"BSTAR":0.00063053556,"MEAN_MOTION_DOT":0.00017131,"MEAN_MOTION_DDOT":0}]
