BUFENG 1A               
1 44310U 19032A   26068.91906837  .00016103  00000+0  62414-3 0  9992
2 44310  44.9758 238.6688 0005472  55.4463 304.6935 15.26012088372013
STARLINK-35438          
1 66347U 25253AE  26068.46508853  .00017131  00000+0  63054-3 0  9997
2 66347  43.0014 213.4659 0001695 255.7018 104.3646 15.27582677 20218
